# From MPC106342
C/1995 O1 (Hale-Bopp),e,89.1132,283.0995,130.4597,177.8702,0.0004155,0.99496207,0.0000,03/29.7444/1997,2000,g -2.0,4.0
# From NK 1615
P/1996 R2 (Lagerkvist),e,2.6006,40.0155,333.3375,3.774875,0.1343848,0.31434331,131.9577,10/21.0/2021,2000,g 11.5,4.0
# From MPC 30063
P/1997 B1 (Kobayashi),e,12.3395,328.8814,183.3258,8.579125,0.0392229,0.76033302,353.7742,10/21.0/2021,2000,g 15.0,2.0
# From MPC 75703
P/1998 VS24 (LINEAR),e,5.0264,159.0379,244.6053,4.527451,0.1023113,0.24252394,140.3230,10/21.0/2021,2000,g 13.0,2.0
# From NK 731
P/1999 RO28 (LONEOS),e,7.5673,137.8857,231.2655,3.426647,0.1553817,0.67234461,131.7016,10/21.0/2021,2000,g 20.0,2.0
# From MPC 75704
P/1999 XN120 (Catalina),e,5.0296,285.2964,161.7868,4.179001,0.1153706,0.21022914,183.9963,10/21.0/2021,2000,g 13.5,2.0
# From NK 744
P/2000 R2 (LINEAR),e,11.6870,160.2857,176.5542,3.466940,0.1526809,0.53161454,130.7529,10/21.0/2021,2000,g 18.0,4.0
# From MPC 43019
P/2001 H5 (NEAT),e,8.3668,328.6829,224.8280,6.097442,0.0654610,0.59829626,143.7333,10/21.0/2021,2000,g 12.0,4.0
# From MPC 75704
P/2001 Q6 (NEAT),e,56.9104,22.1691,42.9280,7.954893,0.0439291,0.82307007,322.1919,10/21.0/2021,2000,g 13.5,4.0
# From MPC 47727
P/2002 EJ57 (LINEAR),e,4.9762,330.3252,167.3405,6.468625,0.0599082,0.59231766,73.1631,10/21.0/2021,2000,g 12.5,4.0
# From MPC109588
P/2002 T6 (NEAT-LINEAR),e,10.8403,206.2016,219.6629,7.693789,0.0461842,0.56106979,313.6019,10/21.0/2021,2000,g 10.5,4.0
# From MPC 75007
C/2002 VQ94 (LINEAR),e,70.6339,35.0802,100.0920,184.7152,0.0003926,0.96304730,2.2557,10/21.0/2021,2000,g  9.5,2.0
# From MPC 50354
P/2003 F2 (NEAT),e,11.6072,359.0186,192.1730,6.501711,0.0594515,0.54210165,42.1095,10/21.0/2021,2000,g 16.5,2.0
# From MPC 50139
P/2003 QX29 (NEAT),e,11.3905,264.5549,37.5441,8.024345,0.0433600,0.47294006,299.9614,10/21.0/2021,2000,g  8.5,4.0
# From MPC105235
P/2003 T12 (SOHO),e,11.0209,174.5803,219.7491,2.585836,0.2370296,0.76986029,126.1115,10/21.0/2021,2000,g 17.0,4.0
# From MPC 82312
P/2004 A1 (LONEOS),e,10.5517,124.8499,21.2334,7.963782,0.0438556,0.30939251,275.9040,10/21.0/2021,2000,g  6.5,4.0
# From MPC 54558
P/2004 DO29 (Spacewatch-LINEAR),e,14.5325,147.3716,40.6322,7.287648,0.0500983,0.44109731,312.0334,10/21.0/2021,2000,g 13.5,2.0
# From MPC 54823
P/2004 FY140 (LINEAR),e,2.1348,326.7641,242.3384,4.904295,0.0907484,0.16806786,207.2111,10/21.0/2021,2000,g 12.5,2.0
# From MPC 53304
P/2004 R3 (LINEAR-NEAT),e,12.7919,305.4245,37.9133,4.783127,0.0942185,0.25838159,2.6666,10/21.0/2021,2000,g 14.5,4.0
# From MPC 55521
P/2004 V3 (Siding Spring),e,50.4428,356.1276,322.3889,7.137991,0.0516821,0.44627543,320.5968,10/21.0/2021,2000,g 11.5,4.0
# From MPC 75705
P/2004 V5 (LINEAR-Hill),e,19.3405,47.7892,87.6591,7.982068,0.0437050,0.44376098,267.0622,10/21.0/2021,2000,g  8.0,4.0
# From MPC 54164
P/2005 E1 (Tubbiolo),e,4.2638,335.5676,194.0117,7.042705,0.0527345,0.37517111,322.6497,10/21.0/2021,2000,g 10.0,4.0
# From MPC 54823
P/2005 GF8 (LONEOS),e,1.1876,314.6760,284.6163,5.818339,0.0702272,0.51717923,52.9911,10/21.0/2021,2000,g 11.5,4.0
# From MPC 79019
P/2005 J1 (McNaught),e,31.7559,268.8173,338.9599,3.570844,0.1460656,0.56943670,161.3579,10/21.0/2021,2000,g 16.5,4.0
# From MPC 74246
P/2005 L1 (McNaught),e,7.7385,138.2482,149.7410,3.977058,0.1242685,0.20981671,358.4087,10/21.0/2021,2000,g  9.5,4.0
# From MPC 75706
P/2005 S2 (Skiff),e,3.1357,161.2163,229.2016,8.012615,0.0434553,0.19776831,245.1204,10/21.0/2021,2000,g  7.5,4.0
# From MPC 75706
P/2005 SB216 (LONEOS),e,24.0943,1.1664,83.3293,7.135361,0.0517107,0.46394275,279.8754,10/21.0/2021,2000,g 12.0,2.0
# From MPC 55717
P/2005 T2 (Christensen),e,8.2910,260.1606,58.8635,3.847385,0.1306037,0.41633189,73.2091,10/21.0/2021,2000,g 14.5,4.0
# From MPC 73461
P/2005 T3 (Read),e,6.2236,27.7051,6.7409,7.584734,0.0471839,0.17471126,276.9109,10/21.0/2021,2000,g  9.0,4.0
# From MPC 73461
P/2005 T4 (SWAN),e,160.2312,25.8087,41.7149,9.361152,0.0344120,0.92970883,201.7595,10/21.0/2021,2000,g 15.0,4.0
# From MPC 75706
P/2005 T5 (Broughton),e,21.3664,57.0001,304.5992,7.287489,0.0500999,0.55248109,293.2594,10/21.0/2021,2000,g 11.0,4.0
# From MPC 75706
P/2005 Y2 (McNaught),e,19.0479,94.3345,193.8387,6.368359,0.0613286,0.46971453,22.5147,10/21.0/2021,2000,g  9.0,4.0
# From MPC 56954
P/2006 F4 (Spacewatch),e,12.4348,183.8231,30.8415,3.519009,0.1493047,0.34071179,121.0175,10/21.0/2021,2000,g 15.0,4.0
# From MPC 75707
P/2006 HR30 (Siding Spring),e,31.8343,309.8916,117.3024,7.810868,0.0451497,0.84252216,245.0135,10/21.0/2021,2000,g 11.0,4.0
# From MPC 75707
P/2007 A2 (Christensen),e,26.4876,300.9088,186.7176,6.330643,0.0618774,0.55792124,334.9925,10/21.0/2021,2000,g 13.5,4.0
# From MPC 75707
P/2007 C2 (Catalina),e,8.6253,275.4475,180.0916,6.993115,0.0532964,0.47127450,273.8650,10/21.0/2021,2000,g 10.0,4.0
# From MPC 84315
C/2007 D1 (LINEAR),e,41.5017,171.2252,339.9539,1331,0.0000203,0.99337594,0.0000,06/07.7165/2007,2000,g  3.5,4.0
# From MPC 82314
P/2007 K2 (Gibbs),e,7.6298,188.6389,347.4149,7.268119,0.0503004,0.68297287,264.5638,10/21.0/2021,2000,g 14.0,4.0
# From MPC 60925
P/2007 Q2 (Gilmore),e,10.2026,172.1571,162.7948,5.653749,0.0733161,0.67012893,24.0486,10/21.0/2021,2000,g 16.0,4.0
# From MPC 75708
P/2007 R4 (Garradd),e,20.2095,87.1972,282.5872,5.934348,0.0681780,0.67012561,356.6797,10/21.0/2021,2000,g 14.5,4.0
# From MPC 73462
P/2007 S1 (Zhao),e,5.9641,141.3700,245.4733,3.819556,0.1320337,0.33967462,313.5557,10/21.0/2021,2000,g 13.0,4.0
# From MPC 61994
P/2007 T2 (Kowalski),e,9.7509,3.3759,359.6438,3.046613,0.1853439,0.78552698,219.5923,10/21.0/2021,2000,g 18.5,4.0
# From MPC 75709
P/2008 L2 (Hill),e,25.8657,218.0125,141.2376,6.027945,0.0665963,0.61330422,322.2356,10/21.0/2021,2000,g 12.5,4.0
# From MPC 64114
P/2008 O3 (Boattini),e,32.2911,47.5783,341.1166,8.219534,0.0418247,0.69578806,204.7616,10/21.0/2021,2000,g 13.0,4.0
# From MPC 66204
P/2008 WZ96 (LINEAR),e,7.1117,56.4458,341.9390,3.486866,0.1513740,0.46980265,8.3559,10/21.0/2021,2000,g 13.5,4.0
# From MPC 75710
P/2008 Y3 (McNaught),e,38.7703,262.8161,238.1560,8.047553,0.0431726,0.44545349,202.4076,10/21.0/2021,2000,g  8.5,4.0
# From MPC 75710
P/2009 B1 (Boattini),e,22.2229,297.0865,128.8748,6.737469,0.0563584,0.63506379,263.3563,10/21.0/2021,2000,g 13.0,4.0
# From MPC 66466
C/2009 G1 (STEREO),e,108.6927,120.4625,175.4515,446.9572,0.0001043,0.99745342,0.0000,04/16.6077/2009,2000,g  9.0,4.0
# From MPC 75710
P/2009 O3 (Hill),e,16.2807,183.6938,154.4447,7.768251,0.0455218,0.68787349,206.3135,10/21.0/2021,2000,g 12.5,4.0
# From MPC 68902
P/2009 Q5 (McNaught),e,40.9887,160.2801,209.0435,7.434156,0.0486247,0.60935595,215.2377,10/21.0/2021,2000,g 10.0,4.0
# From MPC112389
P/2009 T2 (La Sagra),e,27.5781,215.8462,216.3593,7.722104,0.0459304,0.76565641,198.2139,10/21.0/2021,2000,g 14.0,4.0
# From MPC105235
P/2009 WX51 (Catalina),e,9.5937,31.6468,118.1489,3.081862,0.1821731,0.74011373,61.6991,10/21.0/2021,2000,g 19.0,2.0
# From MPC 74247
P/2009 Y2 (Kowalski),e,29.9407,262.0287,172.1354,6.550277,0.0587915,0.63622292,250.0856,10/21.0/2021,2000,g 13.0,4.0
# From MPC 75711
P/2010 A3 (Hill),e,14.8282,63.7891,42.1802,6.080487,0.0657350,0.73354895,278.5900,10/21.0/2021,2000,g 14.0,4.0
# From MPC 75008
P/2010 C1 (Scotti),e,9.1281,141.8860,3.5916,7.103992,0.0520536,0.25907754,227.1542,10/21.0/2021,2000,g  9.5,4.0
# From MPC 75008
P/2010 D2 (WISE),e,57.0868,319.8901,120.0035,6.718157,0.0566016,0.45112111,241.7267,10/21.0/2021,2000,g 16.0,4.0
# From MPC 75009
P/2010 E2 (Jarnac),e,15.3901,177.8219,8.3493,8.639772,0.0388106,0.71966149,163.9035,10/21.0/2021,2000,g 14.0,4.0
# From MPC 72851
P/2010 H2 (Vales),e,14.2752,64.1934,128.0723,3.833217,0.1313285,0.19600769,197.4836,10/21.0/2021,2000,g  6.0,4.0
# From MPC 70361
P/2010 H3 (SOHO),e,23.0670,77.0870,26.1586,3.037249,0.1862017,0.98535930,0.0000,02/07.9482/2021,2000,g 20.0,2.0
# From MPC 73463
P/2010 H4 (Scotti),e,2.3181,44.7343,179.4918,6.594032,0.0582073,0.26678669,241.3028,10/21.0/2021,2000,g 10.5,4.0
# From MPC 74637
P/2010 H5 (Scotti),e,14.0605,24.8009,175.0782,7.164827,0.0513920,0.15287940,216.9764,10/21.0/2021,2000,g 13.0,2.0
# From MPC 98558
P/2010 J3 (McMillan),e,13.2815,106.4295,157.6010,8.975159,0.0366556,0.72653992,149.2277,10/21.0/2021,2000,g 11.0,4.0
# From MPC 84315
P/2010 JC81 (WISE),e,38.7767,30.8550,12.4243,8.108360,0.0426879,0.77729890,163.7482,10/21.0/2021,2000,g  9.0,4.0
# From MPC 74248
P/2010 T2 (PANSTARRS),e,7.8910,58.7802,353.1740,5.539795,0.0755899,0.32180299,293.3416,10/21.0/2021,2000,g 11.5,4.0
# From MPC 98558
P/2010 TO20 (LINEAR-Grauer),e,2.4789,43.2915,266.9874,5.831588,0.0699880,0.05527471,332.2122,10/21.0/2021,2000,g  9.0,4.0
# From MPC 82316
P/2010 U1 (Boattini),e,8.2161,280.7005,86.0351,6.507470,0.0593726,0.24871293,254.3269,10/21.0/2021,2000,g  9.5,4.0
# From MPEC 2021-R75
C/2010 U3 (Boattini),e,55.5357,43.0116,88.0452,2371,0.0000085,0.99643812,0.0000,02/25.2609/2019,2000,g  1.0,4.0
# From MPC 79021
P/2010 UH55 (Spacewatch),e,8.0401,232.9312,225.1607,6.653679,0.0574264,0.56338033,221.0263,10/21.0/2021,2000,g 11.0,4.0
# From MPC 75009
P/2010 WK (LINEAR),e,11.4015,11.3304,40.9644,5.761955,0.0712606,0.69013278,288.3990,10/21.0/2021,2000,g 14.5,2.0
# From MPC 84021
P/2011 C2 (Gibbs),e,10.8851,12.1239,160.8049,7.413567,0.0488274,0.26887104,175.0966,10/21.0/2021,2000,g  9.0,4.0
# From MPC 79866
P/2011 FR143 (Lemmon),e,15.9782,190.9504,350.0514,6.860278,0.0548519,0.45053112,213.4072,10/21.0/2021,2000,g 14.0,2.0
# From MPC 82317
P/2011 JB15 (Spacewatch-Boattini),e,19.1477,153.5796,111.0714,7.359604,0.0493654,0.31715043,175.7340,10/21.0/2021,2000,g  9.0,4.0
# From MPC 87913
P/2011 N1 (ASH),e,35.7358,77.5887,330.3427,6.247809,0.0631121,0.54434426,217.1877,10/21.0/2021,2000,g 11.5,4.0
# From MPC 75714
P/2011 NO1 (Elenin),e,15.2472,295.8090,263.7664,5.526489,0.0758630,0.77456726,298.0094,10/21.0/2021,2000,g 15.0,4.0
# From MPC 82318
P/2011 P1 (McNaught),e,5.6608,4.2368,348.9748,7.464145,0.0483319,0.32770183,198.4325,10/21.0/2021,2000,g  9.0,4.0
# From MPC 77806
